[{"OBJECT_NAME":"GEESAT-6 04","OBJECT_ID":"2025-214E","EPOCH":"2026-03-09T23:39:16.844832","MEAN_MOTION":14.829845,"ECCENTRICITY":0.00094543,"INCLINATION":49.9846,"RA_OF_ASC_NODE":47.7418,"ARG_OF_PERICENTER":207.5517,"MEAN_ANOMALY":152.4921,"EPHEMERIS_TYPE":0,"CLASSIFICATION_TYPE":"U","NORAD_CAT_ID":65716,"ELEMENT_SET_NO":999,"REV_AT_EPOCH":2478,"BSTAR":0.00038451427,"MEAN_MOTION_DOT":2.934e-5,"MEAN_MOTION_DDOT":0},{"OBJECT_NAME":"SL-14 R\/B","OBJECT_ID":"1981-082B","EPOCH":"2026-03-09T21:09:42.816384","MEAN_MOTION":14.87140972,"ECCENTRICITY":0.00173041,"INCLINATION":82.4894,"RA_OF_ASC_NODE":200.4191,"ARG_OF_PERICENTER":158.4125,"MEAN_ANOMALY":201.7826,"EPHEMERIS_TYPE":0,"CLASSIFICATION_TYPE":"U","NORAD_CAT_ID":12786,"ELEMENT_SET_NO":999,"REV_AT_EPOCH":38689,"BSTAR":8.3406244e-5,"MEAN_MOTION_DOT":7.75e-6,"MEAN_MOTION_DDOT":0}]
